start=new Date('2022-03-20T00:00:00.000Z').valueOf();
sats=[{"RA_OF_ASC_NODE":"17.3683","INCLINATION":"53.0552","REV_AT_EPOCH":"4853","ARG_OF_PERICENTER":"55.0489","EPOCH":"2022-03-19T06:01:01.676640","PERIAPSIS":"546.097","MEAN_MOTION_DOT":"0.00002835","MEAN_ANOMALY":"305.0649","GP_ID":"199150550","SEMIMAJOR_AXIS":"6925.338","OBJECT_ID":"2021-038BG","TLE_LINE2":"2 48407  53.0552  17.3683 0001596  55.0489 305.0649 15.06403600 48537","MEAN_ELEMENT_THEORY":"SGP4","MEAN_MOTION":"15.06403600","LAUNCH_DATE":"2021-05-04","APOAPSIS":"548.308","ELEMENT_SET_NO":"999","NORAD_CAT_ID":"48407","TLE_LINE1":"1 48407U 21038BG  22078.25071385  .00002835  00000-0  20911-3 0  9991","ECCENTRICITY":"0.00015960","REF_FRAME":"TEME","SITE":"AFETR","EPHEMERIS_TYPE":"0","CENTER_NAME":"EARTH","TIME_SYSTEM":"UTC","BSTAR":"0.00020911000000","FILE":"3365744","OBJECT_TYPE":"PAYLOAD","RCS_SIZE":"LARGE","PERIOD":"95.592","CLASSIFICATION_TYPE":"U","OBJECT_NAME":"STARLINK-2595","DECAY_DATE":null,"MEAN_MOTION_DDOT":"0.0000000000000","COUNTRY_CODE":"US"},{"SITE":"AFETR","EPHEMERIS_TYPE":"0","ECCENTRICITY":"0.00015030","REF_FRAME":"TEME","TLE_LINE1":"1 48408U 21038BH  22078.24702280 -.00001176  00000-0 -60010-4 0  9990","NORAD_CAT_ID":"48408","TLE_LINE2":"2 48408  53.0574  17.3957 0001503  59.3016 300.8121 15.06413984 48531","MEAN_ELEMENT_THEORY":"SGP4","APOAPSIS":"548.212","ELEMENT_SET_NO":"999","MEAN_MOTION":"15.06413984","LAUNCH_DATE":"2021-05-04","PERIOD":"95.591","MEAN_MOTION_DDOT":"0.0000000000000","DECAY_DATE":null,"COUNTRY_CODE":"US","OBJECT_NAME":"STARLINK-2592","CLASSIFICATION_TYPE":"U","FILE":"3365744","RCS_SIZE":"LARGE","OBJECT_TYPE":"PAYLOAD","BSTAR":"-0.00006001000000","CENTER_NAME":"EARTH","TIME_SYSTEM":"UTC","MEAN_ANOMALY":"300.8121","EPOCH":"2022-03-19T05:55:42.769920","PERIAPSIS":"546.130","ARG_OF_PERICENTER":"59.3016","MEAN_MOTION_DOT":"-0.00001176","INCLINATION":"53.0574","REV_AT_EPOCH":"4853","RA_OF_ASC_NODE":"17.3957","SEMIMAJOR_AXIS":"6925.306","OBJECT_ID":"2021-038BH","GP_ID":"199151802"},{"CENTER_NAME":"EARTH","TIME_SYSTEM":"UTC","BSTAR":"0.00018600000000","RCS_SIZE":"LARGE","FILE":"3365744","OBJECT_TYPE":"PAYLOAD","PERIOD":"95.591","DECAY_DATE":null,"COUNTRY_CODE":"US","MEAN_MOTION_DDOT":"0.0000000000000","OBJECT_NAME":"STARLINK-2596","CLASSIFICATION_TYPE":"U","MEAN_ELEMENT_THEORY":"SGP4","TLE_LINE2":"2 48409  53.0567  22.2954 0001845  44.3751 315.7385 15.06415842 48481","ELEMENT_SET_NO":"999","APOAPSIS":"548.443","LAUNCH_DATE":"2021-05-04","MEAN_MOTION":"15.06415842","TLE_LINE1":"1 48409U 21038BJ  22078.27052529  .00002491  00000-0  18600-3 0  9994","NORAD_CAT_ID":"48409","ECCENTRICITY":"0.00018450","REF_FRAME":"TEME","SITE":"AFETR","EPHEMERIS_TYPE":"0","GP_ID":"199152053","SEMIMAJOR_AXIS":"6925.300","OBJECT_ID":"2021-038BJ","RA_OF_ASC_NODE":"22.2954","INCLINATION":"53.0567","REV_AT_EPOCH":"4848","EPOCH":"2022-03-19T06:29:33.385056","PERIAPSIS":"545.887","ARG_OF_PERICENTER":"44.3751","MEAN_MOTION_DOT":"0.00002491","MEAN_ANOMALY":"315.7385"},{"COUNTRY_CODE":"US","DECAY_DATE":null,"MEAN_MOTION_DDOT":"0.0000000000000","OBJECT_NAME":"STARLINK-2563","CLASSIFICATION_TYPE":"U","PERIOD":"95.591","FILE":"3366144","RCS_SIZE":"LARGE","OBJECT_TYPE":"PAYLOAD","BSTAR":"-0.00105440000000","TIME_SYSTEM":"UTC","CENTER_NAME":"EARTH","EPHEMERIS_TYPE":"0","SITE":"AFETR","REF_FRAME":"TEME","ECCENTRICITY":"0.00015660","TLE_LINE1":"1 48410U 21038BK  22078.91668981 -.00015958  00000-0 -10544-2 0  9994","NORAD_CAT_ID":"48410","ELEMENT_SET_NO":"999","APOAPSIS":"548.253","LAUNCH_DATE":"2021-05-04","MEAN_MOTION":"15.06414861","TLE_LINE2":"2 48410  53.0543 329.4023 0001566  65.9922 175.2302 15.06414861  3596","MEAN_ELEMENT_THEORY":"SGP4","OBJECT_ID":"2021-038BK","SEMIMAJOR_AXIS":"6925.303","GP_ID":"199186215","MEAN_ANOMALY":"175.2302","MEAN_MOTION_DOT":"-0.00015958","EPOCH":"2022-03-19T22:00:01.999584","PERIAPSIS":"546.084","ARG_OF_PERICENTER":"65.9922","REV_AT_EPOCH":"359","INCLINATION":"53.0543","RA_OF_ASC_NODE":"329.4023"},{"NORAD_CAT_ID":"48411","TLE_LINE1":"1 48411U 21038BL  22078.91668981 -.00016831  00000-0 -11137-2 0  9995","MEAN_ELEMENT_THEORY":"SGP4","TLE_LINE2":"2 48411  53.0541 324.3988 0001889  62.3719  86.3776 15.06398480  3609","MEAN_MOTION":"15.06398480","LAUNCH_DATE":"2021-05-04","ELEMENT_SET_NO":"999","APOAPSIS":"548.526","SITE":"AFETR","EPHEMERIS_TYPE":"0","ECCENTRICITY":"0.00018890","REF_FRAME":"TEME","BSTAR":"-0.00111370000000","CENTER_NAME":"EARTH","TIME_SYSTEM":"UTC","PERIOD":"95.592","OBJECT_NAME":"STARLINK-2505","CLASSIFICATION_TYPE":"U","MEAN_MOTION_DDOT":"0.0000000000000","DECAY_DATE":null,"COUNTRY_CODE":"US","RCS_SIZE":"LARGE","FILE":"3366144","OBJECT_TYPE":"PAYLOAD","INCLINATION":"53.0541","REV_AT_EPOCH":"360","RA_OF_ASC_NODE":"324.3988","MEAN_ANOMALY":"86.3776","ARG_OF_PERICENTER":"62.3719","PERIAPSIS":"545.910","EPOCH":"2022-03-19T22:00:01.999584","MEAN_MOTION_DOT":"-0.00016831","SEMIMAJOR_AXIS":"6925.353","OBJECT_ID":"2021-038BL","GP_ID":"199184989"},{"TIME_SYSTEM":"UTC","CENTER_NAME":"EARTH","BSTAR":"-0.00089442000000","FILE":"3366144","RCS_SIZE":"LARGE","OBJECT_TYPE":"PAYLOAD","OBJECT_NAME":"STARLINK-2581","CLASSIFICATION_TYPE":"U","MEAN_MOTION_DDOT":"0.0000000000000","DECAY_DATE":null,"COUNTRY_CODE":"US","PERIOD":"95.592","LAUNCH_DATE":"2021-05-04","MEAN_MOTION":"15.06397371","ELEMENT_SET_NO":"999","APOAPSIS":"548.493","MEAN_ELEMENT_THEORY":"SGP4","TLE_LINE2":"2 48412  53.0534 324.3991 0001836  55.8966 217.9573 15.06397371  3592","NORAD_CAT_ID":"48412","TLE_LINE1":"1 48412U 21038BM  22078.91668981 -.00013578  00000-0 -89442-3 0  9996","REF_FRAME":"TEME","ECCENTRICITY":"0.00018360","EPHEMERIS_TYPE":"0","SITE":"AFETR","GP_ID":"199185740","OBJECT_ID":"2021-038BM","SEMIMAJOR_AXIS":"6925.357","RA_OF_ASC_NODE":"324.3991","REV_AT_EPOCH":"359","INCLINATION":"53.0534","MEAN_MOTION_DOT":"-0.00013578","ARG_OF_PERICENTER":"55.8966","PERIAPSIS":"545.950","EPOCH":"2022-03-19T22:00:01.999584","MEAN_ANOMALY":"217.9573"},{"GP_ID":"199186242","OBJECT_ID":"2021-040A","SEMIMAJOR_AXIS":"6925.337","MEAN_MOTION_DOT":"0.00001240","ARG_OF_PERICENTER":"63.2983","EPOCH":"2022-03-19T20:22:52.172544","PERIAPSIS":"546.011","MEAN_ANOMALY":"296.8182","RA_OF_ASC_NODE":"219.6940","REV_AT_EPOCH":"4788","INCLINATION":"53.0547","OBJECT_TYPE":"PAYLOAD","FILE":"3366144","RCS_SIZE":"LARGE","CLASSIFICATION_TYPE":"U","OBJECT_NAME":"STARLINK-2461","DECAY_DATE":null,"MEAN_MOTION_DDOT":"0.0000000000000","COUNTRY_CODE":"US","PERIOD":"95.592","TIME_SYSTEM":"UTC","CENTER_NAME":"EARTH","BSTAR":"0.00010210000000","REF_FRAME":"TEME","ECCENTRICITY":"0.00017210","EPHEMERIS_TYPE":"0","SITE":"AFETR","LAUNCH_DATE":"2021-05-09","MEAN_MOTION":"15.06403617","ELEMENT_SET_NO":"999","APOAPSIS":"548.394","TLE_LINE2":"2 48428  53.0547 219.6940 0001721  63.2983 296.8182 15.06403617 47881","MEAN_ELEMENT_THEORY":"SGP4","NORAD_CAT_ID":"48428","TLE_LINE1":"1 48428U 21040A   22078.84921496  .00001240  00000-0  10210-3 0  9999"},{"SEMIMAJOR_AXIS":"6925.343","OBJECT_ID":"2021-040B","GP_ID":"199185992","INCLINATION":"53.0547","REV_AT_EPOCH":"359","RA_OF_ASC_NODE":"189.3968","MEAN_ANOMALY":"105.8441","ARG_OF_PERICENTER":"70.5535","EPOCH":"2022-03-19T22:00:01.999584","PERIAPSIS":"546.183","MEAN_MOTION_DOT":"-0.00027656","BSTAR":"-0.00184490000000","CENTER_NAME":"EARTH","TIME_SYSTEM":"UTC","PERIOD":"95.592","CLASSIFICATION_TYPE":"U","OBJECT_NAME":"STARLINK-2749","DECAY_DATE":null,"COUNTRY_CODE":"US","MEAN_MOTION_DDOT":"0.0000000000000","FILE":"3366144","RCS_SIZE":"LARGE","OBJECT_TYPE":"PAYLOAD","NORAD_CAT_ID":"48429","TLE_LINE1":"1 48429U 21040B   22078.91668981 -.00027656  00000-0 -18449-2 0  9997","MEAN_ELEMENT_THEORY":"SGP4","TLE_LINE2":"2 48429  53.0547 189.3968 0001479  70.5535 105.8441 15.06401917  3597","LAUNCH_DATE":"2021-05-09","MEAN_MOTION":"15.06401917","ELEMENT_SET_NO":"999","APOAPSIS":"548.232","SITE":"AFETR","EPHEMERIS_TYPE":"0","ECCENTRICITY":"0.00014790","REF_FRAME":"TEME"},{"TIME_SYSTEM":"UTC","CENTER_NAME":"EARTH","BSTAR":"-0.00164690000000","RCS_SIZE":"LARGE","FILE":"3366144","OBJECT_TYPE":"PAYLOAD","DECAY_DATE":null,"MEAN_MOTION_DDOT":"0.0000000000000","COUNTRY_CODE":"US","OBJECT_NAME":"STARLINK-2729","CLASSIFICATION_TYPE":"U","PERIOD":"95.591","APOAPSIS":"548.182","ELEMENT_SET_NO":"999","MEAN_MOTION":"15.06417633","LAUNCH_DATE":"2021-05-09","MEAN_ELEMENT_THEORY":"SGP4","TLE_LINE2":"2 48430  53.0537 189.3966 0001477  61.6737 294.6831 15.06417633  3603","TLE_LINE1":"1 48430U 21040C   22078.91668981 -.00024739  00000-0 -16469-2 0  9998","NORAD_CAT_ID":"48430","REF_FRAME":"TEME","ECCENTRICITY":"0.00014770","EPHEMERIS_TYPE":"0","SITE":"AFETR","GP_ID":"199186217","OBJECT_ID":"2021-040C","SEMIMAJOR_AXIS":"6925.295","RA_OF_ASC_NODE":"189.3966","REV_AT_EPOCH":"360","INCLINATION":"53.0537","MEAN_MOTION_DOT":"-0.00024739","EPOCH":"2022-03-19T22:00:01.999584","PERIAPSIS":"546.137","ARG_OF_PERICENTER":"61.6737","MEAN_ANOMALY":"294.6831"},{"REV_AT_EPOCH":"359","INCLINATION":"53.0542","RA_OF_ASC_NODE":"184.3865","MEAN_ANOMALY":"211.1496","MEAN_MOTION_DOT":"-0.00027968","ARG_OF_PERICENTER":"72.7204","PERIAPSIS":"546.309","EPOCH":"2022-03-19T22:00:01.999584","OBJECT_ID":"2021-040D","SEMIMAJOR_AXIS":"6925.330","GP_ID":"199184991","NORAD_CAT_ID":"48431","TLE_LINE1":"1 48431U 21040D   22078.91668981 -.00027968  00000-0 -18658-2 0  9998","LAUNCH_DATE":"2021-05-09","MEAN_MOTION":"15.06406215","APOAPSIS":"548.080","ELEMENT_SET_NO":"999","TLE_LINE2":"2 48431  53.0542 184.3865 0001279  72.7204 211.1496 15.06406215  3598","MEAN_ELEMENT_THEORY":"SGP4","EPHEMERIS_TYPE":"0","SITE":"AFETR","REF_FRAME":"TEME","ECCENTRICITY":"0.00012790","BSTAR":"-0.00186580000000","TIME_SYSTEM":"UTC","CENTER_NAME":"EARTH","CLASSIFICATION_TYPE":"U","OBJECT_NAME":"STARLINK-2700","COUNTRY_CODE":"US","DECAY_DATE":null,"MEAN_MOTION_DDOT":"0.0000000000000","PERIOD":"95.592","OBJECT_TYPE":"PAYLOAD","FILE":"3366144","RCS_SIZE":"LARGE"}];
